[
    {
        "Altitude(m)": 617710.6751900786,
        "Argument of Periapsis(deg)": 0.0,
        "Eccentricity": 0.0,
        "Inclination(deg)": 60.0,
        "Latitude(deg)": -41.10275632648117,
        "Longitude(deg)": -160.0334287275743,
        "Mean Anomaly(deg)": -49.09089999999999,
        "RAAN(deg)": 330.0,
        "Satellite Name": "Test1 1471",
        "Satellite Number": 1471,
        "Semi-Major Axis(m)": 6980739.136638005,
        "Time(s)": 0
    },
    {
        "Altitude(m)": 617517.9738137955,
        "Argument of Periapsis(deg)": 0.00010418945913296404,
        "Eccentricity": 0.0,
        "Inclination(deg)": 60.0,
        "Latitude(deg)": -40.63696387478599,
        "Longitude(deg)": -159.53663345027462,
        "Mean Anomaly(deg)": -48.470793854538144,
        "RAAN(deg)": 329.9995799508602,
        "Satellite Name": "Test1 1471",
        "Satellite Number": 1471,
        "Semi-Major Axis(m)": 6980739.136638005,
        "Time(s)": 10
    },
    {
        "Altitude(m)": 617324.2953183966,
        "Argument of Periapsis(deg)": 0.0002083789182659281,
        "Eccentricity": 0.0,
        "Inclination(deg)": 60.0,
        "Latitude(deg)": -40.16864608600808,
        "Longitude(deg)": -159.04726606087956,
        "Mean Anomaly(deg)": -47.85068770907629,
        "RAAN(deg)": 329.9991599017205,
        "Satellite Name": "Test1 1471",
        "Satellite Number": 1471,
        "Semi-Major Axis(m)": 6980739.136638005,
        "Time(s)": 20
    },
    {
        "Altitude(m)": 617129.713684613,
        "Argument of Periapsis(deg)": 0.00031256837739889213,
        "Eccentricity": 0.0,
        "Inclination(deg)": 60.0,
        "Latitude(deg)": -39.69787609243523,
        "Longitude(deg)": -158.56514210531986,
        "Mean Anomaly(deg)": -47.230581563614486,
        "RAAN(deg)": 329.9987398525808,
        "Satellite Name": "Test1 1471",
        "Satellite Number": 1471,
        "Semi-Major Axis(m)": 6980739.136638005,
        "Time(s)": 30
    },
    {
        "Altitude(m)": 616934.3031419093,
        "Argument of Periapsis(deg)": 0.0004167578365318562,
        "Eccentricity": 0.0,
        "Inclination(deg)": 60.0,
        "Latitude(deg)": -39.22472480367787,
        "Longitude(deg)": -158.0900801076987,
        "Mean Anomaly(deg)": -46.61047541815263,
        "RAAN(deg)": 329.998319803441,
        "Satellite Name": "Test1 1471",
        "Satellite Number": 1471,
        "Semi-Major Axis(m)": 6980739.136638005,
        "Time(s)": 40
    },
    {
        "Altitude(m)": 616738.1381360065,
        "Argument of Periapsis(deg)": 0.0005209472956648203,
        "Eccentricity": 0.0,
        "Inclination(deg)": 60.0,
        "Latitude(deg)": -38.74926097906324,
        "Longitude(deg)": -157.62190259349106,
        "Mean Anomaly(deg)": -45.990369272690785,
        "RAAN(deg)": 329.9978997543013,
        "Satellite Name": "Test1 1471",
        "Satellite Number": 1471,
        "Semi-Major Axis(m)": 6980739.136638005,
        "Time(s)": 50
    },
    {
        "Altitude(m)": 616541.2932963193,
        "Argument of Periapsis(deg)": 0.0006251367547977843,
        "Eccentricity": 0.0,
        "Inclination(deg)": 60.0,
        "Latitude(deg)": -38.27155129854751,
        "Longitude(deg)": -157.1604355889863,
        "Mean Anomaly(deg)": -45.37026312722893,
        "RAAN(deg)": 329.99747970516154,
        "Satellite Name": "Test1 1471",
        "Satellite Number": 1471,
        "Semi-Major Axis(m)": 6980739.136638005,
        "Time(s)": 60
    },
    {
        "Altitude(m)": 616343.843403241,
        "Argument of Periapsis(deg)": 0.0007293262139307483,
        "Eccentricity": 0.0,
        "Inclination(deg)": 60.0,
        "Latitude(deg)": -37.79166043207378,
        "Longitude(deg)": -156.70550811097564,
        "Mean Anomaly(deg)": -44.75015698176713,
        "RAAN(deg)": 329.9970596560218,
        "Satellite Name": "Test1 1471",
        "Satellite Number": 1471,
        "Semi-Major Axis(m)": 6980739.136638005,
        "Time(s)": 70
    },
    {
        "Altitude(m)": 616145.8633553896,
        "Argument of Periapsis(deg)": 0.0008335156730637124,
        "Eccentricity": 0.0,
        "Inclination(deg)": 60.0,
        "Latitude(deg)": -37.30965110731747,
        "Longitude(deg)": -156.25695316059839,
        "Mean Anomaly(deg)": -44.13005083630527,
        "RAAN(deg)": 329.99663960688207,
        "Satellite Name": "Test1 1471",
        "Satellite Number": 1471,
        "Semi-Major Axis(m)": 6980739.136638005,
        "Time(s)": 80
    },
    {
        "Altitude(m)": 615947.4281367344,
        "Argument of Periapsis(deg)": 0.0009377051321966765,
        "Eccentricity": 0.0,
        "Inclination(deg)": 60.0,
        "Latitude(deg)": -36.82558417578327,
        "Longitude(deg)": -155.81460719655814,
        "Mean Anomaly(deg)": -43.50994469084342,
        "RAAN(deg)": 329.9962195577423,
        "Satellite Name": "Test1 1471",
        "Satellite Number": 1471,
        "Semi-Major Axis(m)": 6980739.136638005,
        "Time(s)": 90
    },
    {
        "Altitude(m)": 615748.6127836948,
        "Argument of Periapsis(deg)": 0.0010418945913296407,
        "Eccentricity": 0.0,
        "Inclination(deg)": 60.0,
        "Latitude(deg)": -36.33951867722007,
        "Longitude(deg)": -155.37830960146076,
        "Mean Anomaly(deg)": -42.889838545381565,
        "RAAN(deg)": 329.99579950860254,
        "Satellite Name": "Test1 1471",
        "Satellite Number": 1471,
        "Semi-Major Axis(m)": 6980739.136638005,
        "Time(s)": 100
    },
    {
        "Altitude(m)": 615549.492352191,
        "Argument of Periapsis(deg)": 0.0011460840504626045,
        "Eccentricity": 0.0,
        "Inclination(deg)": 60.0,
        "Latitude(deg)": -35.8515119023327,
        "Longitude(deg)": -154.94790365495783,
        "Mean Anomaly(deg)": -42.26973239991977,
        "RAAN(deg)": 329.99537945946287,
        "Satellite Name": "Test1 1471",
        "Satellite Number": 1471,
        "Semi-Major Axis(m)": 6980739.136638005,
        "Time(s)": 110
    },
    {
        "Altitude(m)": 615350.1418846356,
        "Argument of Periapsis(deg)": 0.0012502735095955685,
        "Eccentricity": 0.0,
        "Inclination(deg)": 60.0,
        "Latitude(deg)": -35.361619453784265,
        "Longitude(deg)": -154.52323598868495,
        "Mean Anomaly(deg)": -41.649626254457914,
        "RAAN(deg)": 329.9949594103231,
        "Satellite Name": "Test1 1471",
        "Satellite Number": 1471,
        "Semi-Major Axis(m)": 6980739.136638005,
        "Time(s)": 120
    },
    {
        "Altitude(m)": 615150.6363769484,
        "Argument of Periapsis(deg)": 0.0013544629687285324,
        "Eccentricity": 0.0,
        "Inclination(deg)": 60.0,
        "Latitude(deg)": -34.869895305485606,
        "Longitude(deg)": -154.1041560365454,
        "Mean Anomaly(deg)": -41.02952010899616,
        "RAAN(deg)": 329.99453936118334,
        "Satellite Name": "Test1 1471",
        "Satellite Number": 1471,
        "Semi-Major Axis(m)": 6980739.136638005,
        "Time(s)": 130
    },
    {
        "Altitude(m)": 614951.0507455515,
        "Argument of Periapsis(deg)": 0.0014586524278614966,
        "Eccentricity": 0.0,
        "Inclination(deg)": 60.0,
        "Latitude(deg)": -34.37639186017258,
        "Longitude(deg)": -153.6905169938285,
        "Mean Anomaly(deg)": -40.40941396353431,
        "RAAN(deg)": 329.99411931204355,
        "Satellite Name": "Test1 1471",
        "Satellite Number": 1471,
        "Semi-Major Axis(m)": 6980739.136638005,
        "Time(s)": 140
    },
    {
        "Altitude(m)": 614751.459794372,
        "Argument of Periapsis(deg)": 0.0015628418869944607,
        "Eccentricity": 0.0,
        "Inclination(deg)": 60.0,
        "Latitude(deg)": -33.881160005289395,
        "Longitude(deg)": -153.282175259978,
        "Mean Anomaly(deg)": -39.78930781807251,
        "RAAN(deg)": 329.9936992629039,
        "Satellite Name": "Test1 1471",
        "Satellite Number": 1471,
        "Semi-Major Axis(m)": 6980739.136638005,
        "Time(s)": 150
    },
    {
        "Altitude(m)": 614551.938181911,
        "Argument of Periapsis(deg)": 0.0016670313461274247,
        "Eccentricity": 0.0,
        "Inclination(deg)": 60.0,
        "Latitude(deg)": -33.38424916718955,
        "Longitude(deg)": -152.8789898783915,
        "Mean Anomaly(deg)": -39.169201672610654,
        "RAAN(deg)": 329.99327921376414,
        "Satellite Name": "Test1 1471",
        "Satellite Number": 1471,
        "Semi-Major Axis(m)": 6980739.136638005,
        "Time(s)": 160
    },
    {
        "Altitude(m)": 614352.5603883218,
        "Argument of Periapsis(deg)": 0.0017712208052603888,
        "Eccentricity": 0.0,
        "Inclination(deg)": 60.0,
        "Latitude(deg)": -32.88570736367511,
        "Longitude(deg)": -152.48082348659037,
        "Mean Anomaly(deg)": -38.5490955271489,
        "RAAN(deg)": 329.99285916462435,
        "Satellite Name": "Test1 1471",
        "Satellite Number": 1471,
        "Semi-Major Axis(m)": 6980739.136638005,
        "Time(s)": 170
    },
    {
        "Altitude(m)": 614153.4006825612,
        "Argument of Periapsis(deg)": 0.001875410264393353,
        "Eccentricity": 0.0,
        "Inclination(deg)": 60.0,
        "Latitude(deg)": -32.38558125490225,
        "Longitude(deg)": -152.08754175142985,
        "Mean Anomaly(deg)": -37.92898938168705,
        "RAAN(deg)": 329.9924391154846,
        "Satellite Name": "Test1 1471",
        "Satellite Number": 1471,
        "Semi-Major Axis(m)": 6980739.136638005,
        "Time(s)": 180
    },
    {
        "Altitude(m)": 613954.5330896355,
        "Argument of Periapsis(deg)": 0.0019795997235263173,
        "Eccentricity": 0.0,
        "Inclination(deg)": 60.0,
        "Latitude(deg)": -31.883916192681056,
        "Longitude(deg)": -151.69901280260248,
        "Mean Anomaly(deg)": -37.30888323622524,
        "RAAN(deg)": 329.99201906634494,
        "Satellite Name": "Test1 1471",
        "Satellite Number": 1471,
        "Semi-Major Axis(m)": 6980739.136638005,
        "Time(s)": 190
    }
]